{"type": "FeatureCollection", "features": [ {"type": "Feature", "properties": {"norad_id": 66959, "name": "STARLINK-35887", "group": "last-30-days", "lat": -21.57394880282641, "lon": -69.63651591947699, "alt_km": 385.2160633130743, "timestamp": "2025-12-26T04:40:04.513213+00:00", "meta": {"OBJECT_NAME": "STARLINK-35887", "OBJECT_ID": "2025-288A", "EPOCH": "2025-12-25T22:00:01.999584", "MEAN_MOTION": 15.62696845, "ECCENTRICITY": 0.00013801, "INCLINATION": 43.0003, "RA_OF_ASC_NODE": 86.9095, "ARG_OF_PERICENTER": 286.1692, "MEAN_ANOMALY": 162.2865, "EPHEMERIS_TYPE": 0, "CLASSIFICATION_TYPE": "U", "NORAD_CAT_ID": 66959, "ELEMENT_SET_NO": 999, "REV_AT_EPOCH": 394, "BSTAR": -0.024926003, "MEAN_MOTION_DOT": -0.02017497, "MEAN_MOTION_DDOT": 0}, "tle": {"line1": "1 66959U 25288A   25359.91668981 -.02017497  00000+0 -24926-1 0  9997", "line2": "2 66959  43.0003  86.9095 0001380 286.1692 162.2865 15.62696845  3948"}}, "geometry": {"type": "Point", "coordinates": [-69.63651591947699, -21.57394880282641]}}, {"type": "Feature", "properties": {"norad_id": 66960, "name": "STARLINK-35879", "group": "last-30-days", "lat": -22.748288884339196, "lon": -68.00750528991139, "alt_km": 385.26534273089965, "timestamp": "2025-12-26T04:40:04.513223+00:00", "meta": {"OBJECT_NAME": "STARLINK-35879", "OBJECT_ID": "2025-288B", "EPOCH": "2025-12-25T22:00:01.999584", "MEAN_MOTION": 15.62701518, "ECCENTRICITY": 0.00014057, "INCLINATION": 43.0001, "RA_OF_ASC_NODE": 86.9045, "ARG_OF_PERICENTER": 286.1518, "MEAN_ANOMALY": 164.2179, "EPHEMERIS_TYPE": 0, "CLASSIFICATION_TYPE": "U", "NORAD_CAT_ID": 66960, "ELEMENT_SET_NO": 999, "REV_AT_EPOCH": 394, "BSTAR": -0.024984658, "MEAN_MOTION_DOT": -0.02021999, "MEAN_MOTION_DDOT": 0}, "tle": {"line1": "1 66960U 25288B   25359.91668981 -.02021999  00000+0 -24985-1 0  9996", "line2": "2 66960  43.0001  86.9045 0001405 286.1518 164.2179 15.62701518  3942"}}, "geometry": {"type": "Point", "coordinates": [-68.00750528991139, -22.748288884339196]}}, {"type": "Feature", "properties": {"norad_id": 66961, "name": "STARLINK-35761", "group": "last-30-days", "lat": -23.90871709116511, "lon": -66.34536013689966, "alt_km": 385.2498332646883, "timestamp": "2025-12-26T04:40:04.513233+00:00", "meta": {"OBJECT_NAME": "STARLINK-35761", "OBJECT_ID": "2025-288C", "EPOCH": "2025-12-25T22:00:01.999584", "MEAN_MOTION": 15.62693611, "ECCENTRICITY": 0.0001328, "INCLINATION": 42.9999, "RA_OF_ASC_NODE": 86.9001, "ARG_OF_PERICENTER": 280.9537, "MEAN_ANOMALY": 171.3429, "EPHEMERIS_TYPE": 0, "CLASSIFICATION_TYPE": "U", "NORAD_CAT_ID": 66961, "ELEMENT_SET_NO": 999, "REV_AT_EPOCH": 394, "BSTAR": -0.024933793, "MEAN_MOTION_DOT": -0.02017783, "MEAN_MOTION_DDOT": 0}, "tle": {"line1": "1 66961U 25288C   25359.91668981 -.02017783  00000+0 -24934-1 0  9997", "line2": "2 66961  42.9999  86.9001 0001328 280.9537 171.3429 15.62693611  3947"}}, "geometry": {"type": "Point", "coordinates": [-66.34536013689966, -23.90871709116511]}}, {"type": "Feature", "properties": {"norad_id": 66962, "name": "STARLINK-35874", "group": "last-30-days", "lat": -25.044088575933195, "lon": -64.66372859649661, "alt_km": 385.3710217594826, "timestamp": "2025-12-26T04:40:04.513242+00:00", "meta": {"OBJECT_NAME": "STARLINK-35874", "OBJECT_ID": "2025-288D", "EPOCH": "2025-12-25T22:00:01.999584", "MEAN_MOTION": 15.62697471, "ECCENTRICITY": 0.00015558, "INCLINATION": 42.9999, "RA_OF_ASC_NODE": 86.8957, "ARG_OF_PERICENTER": 287.7554, "MEAN_ANOMALY": 166.4505, "EPHEMERIS_TYPE": 0, "CLASSIFICATION_TYPE": "U", "NORAD_CAT_ID": 66962, "ELEMENT_SET_NO": 999, "REV_AT_EPOCH": 394, "BSTAR": -0.024910257, "MEAN_MOTION_DOT": -0.02016561, "MEAN_MOTION_DDOT": 0}, "tle": {"line1": "1 66962U 25288D   25359.91668981 -.02016561  00000+0 -24910-1 0  9995", "line2": "2 66962  42.9999  86.8957 0001555 287.7554 166.4505 15.62697471  3941"}}, "geometry": {"type": "Point", "coordinates": [-64.66372859649661, -25.044088575933195]}}, {"type": "Feature", "properties": {"norad_id": 66963, "name": "STARLINK-36133", "group": "last-30-days", "lat": -26.165434759602526, "lon": -62.943897040294885, "alt_km": 385.35412212143, "timestamp": "2025-12-26T04:40:04.513254+00:00", "meta": {"OBJECT_NAME": "STARLINK-36133", "OBJECT_ID": "2025-288E", "EPOCH": "2025-12-25T22:00:01.999584", "MEAN_MOTION": 15.62701533, "ECCENTRICITY": 0.00014271, "INCLINATION": 43.0001, "RA_OF_ASC_NODE": 86.8901, "ARG_OF_PERICENTER": 283.3252, "MEAN_ANOMALY": 172.7962, "EPHEMERIS_TYPE": 0, "CLASSIFICATION_TYPE": "U", "NORAD_CAT_ID": 66963, "ELEMENT_SET_NO": 999, "REV_AT_EPOCH": 394, "BSTAR": -0.02499024, "MEAN_MOTION_DOT": -0.02022412, "MEAN_MOTION_DDOT": 0}, "tle": {"line1": "1 66963U 25288E   25359.91668981 -.02022412  00000+0 -24990-1 0  9996", "line2": "2 66963  43.0001  86.8901 0001427 283.3252 172.7962 15.62701533  3944"}}, "geometry": {"type": "Point", "coordinates": [-62.943897040294885, -26.165434759602526]}}, {"type": "Feature", "properties": {"norad_id": 66964, "name": "STARLINK-36104", "group": "last-30-days", "lat": -27.26396808924193, "lon": -61.193540456667286, "alt_km": 385.3974188490856, "timestamp": "2025-12-26T04:40:04.513264+00:00", "meta": {"OBJECT_NAME": "STARLINK-36104", "OBJECT_ID": "2025-288F", "EPOCH": "2025-12-25T22:00:01.999584", "MEAN_MOTION": 15.62698192, "ECCENTRICITY": 0.00014922, "INCLINATION": 43.0004, "RA_OF_ASC_NODE": 86.885, "ARG_OF_PERICENTER": 284.3478, "MEAN_ANOMALY": 173.6921, "EPHEMERIS_TYPE": 0, "CLASSIFICATION_TYPE": "U", "NORAD_CAT_ID": 66964, "ELEMENT_SET_NO": 999, "REV_AT_EPOCH": 394, "BSTAR": -0.024918394, "MEAN_MOTION_DOT": -0.02017138, "MEAN_MOTION_DDOT": 0}, "tle": {"line1": "1 66964U 25288F   25359.91668981 -.02017138  00000+0 -24918-1 0  9996", "line2": "2 66964  43.0004  86.8850 0001492 284.3478 173.6921 15.62698192  3945"}}, "geometry": {"type": "Point", "coordinates": [-61.193540456667286, -27.26396808924193]}}, {"type": "Feature", "properties": {"norad_id": 66965, "name": "STARLINK-36067", "group": "last-30-days", "lat": -28.341943473843447, "lon": -59.40354777784622, "alt_km": 385.5226891101038, "timestamp": "2025-12-26T04:40:04.513274+00:00", "meta": {"OBJECT_NAME": "STARLINK-36067", "OBJECT_ID": "2025-288G", "EPOCH": "2025-12-25T22:00:01.999584", "MEAN_MOTION": 15.62699244, "ECCENTRICITY": 0.00012295, "INCLINATION": 43, "RA_OF_ASC_NODE": 86.8809, "ARG_OF_PERICENTER": 284.3128, "MEAN_ANOMALY": 175.6447, "EPHEMERIS_TYPE": 0, "CLASSIFICATION_TYPE": "U", "NORAD_CAT_ID": 66965, "ELEMENT_SET_NO": 999, "REV_AT_EPOCH": 394, "BSTAR": -0.024971313, "MEAN_MOTION_DOT": -0.0202076, "MEAN_MOTION_DDOT": 0}, "tle": {"line1": "1 66965U 25288G   25359.91668981 -.02020760  00000+0 -24971-1 0  9991", "line2": "2 66965  43.0000  86.8809 0001229 284.3128 175.6447 15.62699244  3940"}}, "geometry": {"type": "Point", "coordinates": [-59.40354777784622, -28.341943473843447]}}, {"type": "Feature", "properties": {"norad_id": 66966, "name": "STARLINK-36139", "group": "last-30-days", "lat": -29.39391872333591, "lon": -57.5825748200587, "alt_km": 385.5470957215721, "timestamp": "2025-12-26T04:40:04.513285+00:00", "meta": {"OBJECT_NAME": "STARLINK-36139", "OBJECT_ID": "2025-288H", "EPOCH": "2025-12-25T22:00:01.999584", "MEAN_MOTION": 15.62696492, "ECCENTRICITY": 0.00013352, "INCLINATION": 43.0002, "RA_OF_ASC_NODE": 86.8759, "ARG_OF_PERICENTER": 285.3215, "MEAN_ANOMALY": 176.5548, "EPHEMERIS_TYPE": 0, "CLASSIFICATION_TYPE": "U", "NORAD_CAT_ID": 66966, "ELEMENT_SET_NO": 999, "REV_AT_EPOCH": 394, "BSTAR": -0.024931552, "MEAN_MOTION_DOT": -0.02017831, "MEAN_MOTION_DDOT": 0}, "tle": {"line1": "1 66966U 25288H   25359.91668981 -.02017831  00000+0 -24932-1 0  9994", "line2": "2 66966  43.0002  86.8759 0001335 285.3215 176.5548 15.62696492  3947"}}, "geometry": {"type": "Point", "coordinates": [-57.5825748200587, -29.39391872333591]}}, {"type": "Feature", "properties": {"norad_id": 66967, "name": "STARLINK-36136", "group": "last-30-days", "lat": -30.421503905740625, "lon": -55.721673308368736, "alt_km": 385.57337685033417, "timestamp": "2025-12-26T04:40:04.513296+00:00", "meta": {"OBJECT_NAME": "STARLINK-36136", "OBJECT_ID": "2025-288J", "EPOCH": "2025-12-25T22:00:01.999584", "MEAN_MOTION": 15.62697421, "ECCENTRICITY": 0.00013019, "INCLINATION": 43.0001, "RA_OF_ASC_NODE": 86.8708, "ARG_OF_PERICENTER": 284.2839, "MEAN_ANOMALY": 179.5095, "EPHEMERIS_TYPE": 0, "CLASSIFICATION_TYPE": "U", "NORAD_CAT_ID": 66967, "ELEMENT_SET_NO": 999, "REV_AT_EPOCH": 394, "BSTAR": -0.024949506, "MEAN_MOTION_DOT": -0.02019143, "MEAN_MOTION_DDOT": 0}, "tle": {"line1": "1 66967U 25288J   25359.91668981 -.02019143  00000+0 -24950-1 0  9993", "line2": "2 66967  43.0001  86.8708 0001301 284.2839 179.5095 15.62697421  3947"}}, "geometry": {"type": "Point", "coordinates": [-55.721673308368736, -30.421503905740625]}}, {"type": "Feature", "properties": {"norad_id": 66968, "name": "STARLINK-36152", "group": "last-30-days", "lat": -31.41982831935931, "lon": -53.82506931595747, "alt_km": 385.61614766047387, "timestamp": "2025-12-26T04:40:04.513306+00:00", "meta": {"OBJECT_NAME": "STARLINK-36152", "OBJECT_ID": "2025-288K", "EPOCH": "2025-12-25T22:00:01.999584", "MEAN_MOTION": 15.62694986, "ECCENTRICITY": 0.00014356, "INCLINATION": 43.0001, "RA_OF_ASC_NODE": 86.8666, "ARG_OF_PERICENTER": 287.6822, "MEAN_ANOMALY": 178.0276, "EPHEMERIS_TYPE": 0, "CLASSIFICATION_TYPE": "U", "NORAD_CAT_ID": 66968, "ELEMENT_SET_NO": 999, "REV_AT_EPOCH": 394, "BSTAR": -0.024878445, "MEAN_MOTION_DOT": -0.02014038, "MEAN_MOTION_DDOT": 0}, "tle": {"line1": "1 66968U 25288K   25359.91668981 -.02014038  00000+0 -24878-1 0  9991", "line2": "2 66968  43.0001  86.8666 0001435 287.6822 178.0276 15.62694986  3946"}}, "geometry": {"type": "Point", "coordinates": [-53.82506931595747, -31.41982831935931]}}]}